[
  {
    "name": "ONEWEB-0225",
    "noradId": "48799",
    "line1": "1 48799U 21045AJ  26198.10123356 -.00000067  00000+0 -21152-3 0  9994",
    "line2": "2 48799  87.8987 253.2390 0002290 111.5077 248.6297 13.15548511248359"
  },
  {
    "name": "ONEWEB-0215",
    "noradId": "48800",
    "line1": "1 48800U 21045AK  26198.14717556  .00000172  00000+0  42305-3 0  9990",
    "line2": "2 48800  87.8993 253.2140 0002443 112.4001 247.7389 13.15549199248231"
  },
  {
    "name": "ONEWEB-0216",
    "noradId": "48801",
    "line1": "1 48801U 21045AL  26197.70034801 -.00000042  00000+0 -14503-3 0  9994",
    "line2": "2 48801  87.8991 253.3166 0002043  98.0738 262.0624 13.15548359248184"
  },
  {
    "name": "ONEWEB-0239",
    "noradId": "48802",
    "line1": "1 48802U 21045AM  26198.08538985  .00000092  00000+0  20935-3 0  9998",
    "line2": "2 48802  87.8982 253.2438 0002723 109.3002 250.8423 13.15548224248274"
  },
  {
    "name": "ONEWEB-0249",
    "noradId": "48967",
    "line1": "1 48967U 21060A   26198.07167456  .00000065  00000+0  13666-3 0  9990",
    "line2": "2 48967  87.9080 222.8418 0002167  94.9130 265.2249 13.16592456243547"
  },
  {
    "name": "ONEWEB-0250",
    "noradId": "48968",
    "line1": "1 48968U 21060B   26198.04181459  .00000029  00000+0  36632-4 0  9996",
    "line2": "2 48968  87.9080 220.5068 0003057  84.1964 275.9521 13.25835375244170"
  },
  {
    "name": "ONEWEB-0252",
    "noradId": "48970",
    "line1": "1 48970U 21060D   26197.57058455 -.00000050  00000+0 -16391-3 0  9990",
    "line2": "2 48970  87.9078 222.9336 0001871  96.2308 263.9036 13.16595307243526"
  },
  {
    "name": "ONEWEB-0253",
    "noradId": "48971",
    "line1": "1 48971U 21060E   26198.01548441  .00000001  00000+0 -30245-4 0  9990",
    "line2": "2 48971  87.9079 222.8505 0002207  93.2883 266.8500 13.16595405243510"
  },
  {
    "name": "ONEWEB-0254",
    "noradId": "48972",
    "line1": "1 48972U 21060F   26198.02499198 -.00000012  00000+0 -64009-4 0  9994",
    "line2": "2 48972  87.9080 222.8468 0002336  98.3284 261.8112 13.16594005243514"
  },
  {
    "name": "ONEWEB-0255",
    "noradId": "48973",
    "line1": "1 48973U 21060G   26198.06299017  .00000080  00000+0  17525-3 0  9990",
    "line2": "2 48973  87.9078 222.8454 0002173  97.6248 262.5129 13.16594178243593"
  },
  {
    "name": "ONEWEB-0256",
    "noradId": "48974",
    "line1": "1 48974U 21060H   26197.55713603 -.00000855  00000+0 -22716-2 0  9995",
    "line2": "2 48974  87.9077 222.9485 0001842  93.0010 267.1331 13.16584138243497"
  },
  {
    "name": "ONEWEB-0257",
    "noradId": "48975",
    "line1": "1 48975U 21060J   26198.04557360  .00000072  00000+0  15378-3 0  9993",
    "line2": "2 48975  87.9076 222.8402 0002058  98.0317 262.1047 13.16593756243518"
  },
  {
    "name": "ONEWEB-0258",
    "noradId": "48976",
    "line1": "1 48976U 21060K   26198.04715661  .00000114  00000+0  26565-3 0  9991",
    "line2": "2 48976  87.9077 222.8524 0002157  94.7320 265.4058 13.16594260243522"
  },
  {
    "name": "ONEWEB-0259",
    "noradId": "48977",
    "line1": "1 48977U 21060L   26198.04082360  .00000057  00000+0  11511-3 0  9996",
    "line2": "2 48977  87.9076 222.8519 0002279  94.9907 265.1484 13.16594178243555"
  },
  {
    "name": "ONEWEB-0260",
    "noradId": "48978",
    "line1": "1 48978U 21060M   26198.03209389  .00000003  00000+0 -25733-4 0  9992",
    "line2": "2 48978  87.9072 222.8540 0001670  94.2749 265.8573 13.16595553243539"
  },
  {
    "name": "ONEWEB-0261",
    "noradId": "48979",
    "line1": "1 48979U 21060N   26198.07803556  .00000046  00000+0  86518-4 0  9997",
    "line2": "2 48979  87.9078 222.8455 0002083 102.5872 257.5492 13.16594160243597"
  },
  {
    "name": "ONEWEB-0262",
    "noradId": "48980",
    "line1": "1 48980U 21060P   26198.05823970  .00000099  00000+0  22660-3 0  9994",
    "line2": "2 48980  87.9078 222.8364 0002351  95.6373 264.5026 13.16593996243557"
  },
  {
    "name": "ONEWEB-0263",
    "noradId": "48981",
    "line1": "1 48981U 21060Q   26198.01390588 -.00000007  00000+0 -52495-4 0  9996",
    "line2": "2 48981  87.9078 222.8569 0002201 101.3437 258.7941 13.16594075243511"
  },
  {
    "name": "ONEWEB-0264",
    "noradId": "48982",
    "line1": "1 48982U 21060R   26198.05110242  .00000083  00000+0  18322-3 0  9990",
    "line2": "2 48982  87.9071 222.8516 0001961  98.4127 261.7226 13.16592540243527"
  },
  {
    "name": "ONEWEB-0266",
    "noradId": "48984",
    "line1": "1 48984U 21060T   26197.61649322 -.00000004  00000+0 -43821-4 0  9997",
    "line2": "2 48984  87.9081 222.9293 0002123  91.3506 268.7868 13.16596108243452"
  },
  {
    "name": "ONEWEB-0267",
    "noradId": "48985",
    "line1": "1 48985U 21060U   26197.62758946  .00000010  00000+0 -66172-5 0  9993",
    "line2": "2 48985  87.9081 222.9238 0002053  99.0786 261.0577 13.16594482243466"
  },
  {
    "name": "ONEWEB-0268",
    "noradId": "48986",
    "line1": "1 48986U 21060V   26198.05189196  .00000819  00000+0  21076-2 0  9994",
    "line2": "2 48986  87.9074 222.8493 0001957  93.3638 266.7717 13.16601870243789"
  },
  {
    "name": "ONEWEB-0269",
    "noradId": "48987",
    "line1": "1 48987U 21060W   26198.03290610 -.00000025  00000+0 -97806-4 0  9994",
    "line2": "2 48987  87.9072 222.8530 0001955  88.2481 271.8874 13.16593981243556"
  },
  {
    "name": "ONEWEB-0270",
    "noradId": "48988",
    "line1": "1 48988U 21060X   26198.05030256  .00000040  00000+0  70075-4 0  9999",
    "line2": "2 48988  87.9080 222.8516 0002345  99.7198 260.4198 13.16592588243595"
  },
  {
    "name": "ONEWEB-0271",
    "noradId": "48989",
    "line1": "1 48989U 21060Y   26197.58167626  .00000001  00000+0 -30529-4 0  9997",
    "line2": "2 48989  87.9076 222.9338 0002135 100.0700 260.0672 13.16593998243539"
  },
  {
    "name": "ONEWEB-0272",
    "noradId": "48990",
    "line1": "1 48990U 21060Z   26198.05981495  .00000106  00000+0  24416-3 0  9992",
    "line2": "2 48990  87.9071 222.8496 0001831  99.3656 260.7682 13.16595763243543"
  },
  {
    "name": "ONEWEB-0273",
    "noradId": "48991",
    "line1": "1 48991U 21060AA  26197.55000669 -.00000101  00000+0 -29898-3 0  9998",
    "line2": "2 48991  87.9077 222.9517 0002170  96.3797 263.7581 13.16594083243450"
  },
  {
    "name": "ONEWEB-0274",
    "noradId": "48992",
    "line1": "1 48992U 21060AB  26198.03130767  .00000006  00000+0 -17766-4 0  9991",
    "line2": "2 48992  87.9069 222.8557 0001757  95.2937 264.8394 13.16595279243552"
  },
  {
    "name": "ONEWEB-0275",
    "noradId": "48993",
    "line1": "1 48993U 21060AC  26198.02022427 -.00000007  00000+0 -53017-4 0  9995",
    "line2": "2 48993  87.9080 222.8500 0001995  95.6003 264.5356 13.16596004243480"
  },
  {
    "name": "ONEWEB-0276",
    "noradId": "48994",
    "line1": "1 48994U 21060AD  26198.05349113  .00000114  00000+0  26515-3 0  9992",
    "line2": "2 48994  87.9077 222.8425 0001911  95.2474 264.8875 13.16593756243502"
  },
  {
    "name": "ONEWEB-0277",
    "noradId": "48995",
    "line1": "1 48995U 21060AE  26197.61017721  .00000064  00000+0  13251-3 0  9998",
    "line2": "2 48995  87.9073 222.9377 0002153  98.0198 262.1177 13.16595173243432"
  }
]