OBJECT_NAME,OBJECT_ID,EPOCH,MEAN_MOTION,ECCENTRICITY,INCLINATION,RA_OF_ASC_NODE,ARG_OF_PERICENTER,MEAN_ANOMALY,EPHEMERIS_TYPE,CLASSIFICATION_TYPE,NORAD_CAT_ID,ELEMENT_SET_NO,REV_AT_EPOCH,BSTAR,MEAN_MOTION_DOT,MEAN_MOTION_DDOT
ONEWEB-0225,2021-045AJ,2026-07-17T02:25:46.579584,13.15548511,.000229,87.8987,253.2390,111.5077,248.6297,0,U,48799,999,24835,-.21152E-3,-.67E-6,0
ONEWEB-0215,2021-045AK,2026-07-17T03:31:55.968384,13.15549199,.0002443,87.8993,253.2140,112.4001,247.7389,0,U,48800,999,24823,.42305E-3,.172E-5,0
ONEWEB-0216,2021-045AL,2026-07-16T16:48:30.068064,13.15548359,.0002043,87.8991,253.3166,98.0738,262.0624,0,U,48801,999,24818,-.14503E-3,-.42E-6,0
ONEWEB-0239,2021-045AM,2026-07-17T02:02:57.683040,13.15548224,.0002723,87.8982,253.2438,109.3002,250.8423,0,U,48802,999,24827,.20935E-3,.92E-6,0
ONEWEB-0249,2021-060A,2026-07-17T01:43:12.681984,13.16592456,.0002167,87.9080,222.8418,94.9130,265.2249,0,U,48967,999,24354,.13666E-3,.65E-6,0
ONEWEB-0250,2021-060B,2026-07-17T01:00:12.780576,13.25835375,.0003057,87.9080,220.5068,84.1964,275.9521,0,U,48968,999,24417,.36632E-4,.29E-6,0
ONEWEB-0252,2021-060D,2026-07-16T13:41:38.505120,13.16595307,.0001871,87.9078,222.9336,96.2308,263.9036,0,U,48970,999,24352,-.16391E-3,-.5E-6,0
ONEWEB-0253,2021-060E,2026-07-17T00:22:17.853024,13.16595405,.0002207,87.9079,222.8505,93.2883,266.8500,0,U,48971,999,24351,-.30245E-4,.1E-7,0
ONEWEB-0254,2021-060F,2026-07-17T00:35:59.307072,13.16594005,.0002336,87.9080,222.8468,98.3284,261.8112,0,U,48972,999,24351,-.64009E-4,-.12E-6,0
ONEWEB-0255,2021-060G,2026-07-17T01:30:42.350688,13.16594178,.0002173,87.9078,222.8454,97.6248,262.5129,0,U,48973,999,24359,.17525E-3,.8E-6,0
ONEWEB-0256,2021-060H,2026-07-16T13:22:16.552992,13.16584138,.0001842,87.9077,222.9485,93.0010,267.1331,0,U,48974,999,24349,-.22716E-2,-.855E-5,0
ONEWEB-0257,2021-060J,2026-07-17T01:05:37.559040,13.16593756,.0002058,87.9076,222.8402,98.0317,262.1047,0,U,48975,999,24351,.15378E-3,.72E-6,0
ONEWEB-0258,2021-060K,2026-07-17T01:07:54.331104,13.16594260,.0002157,87.9077,222.8524,94.7320,265.4058,0,U,48976,999,24352,.26565E-3,.114E-5,0
ONEWEB-0259,2021-060L,2026-07-17T00:58:47.159040,13.16594178,.0002279,87.9076,222.8519,94.9907,265.1484,0,U,48977,999,24355,.11511E-3,.57E-6,0
ONEWEB-0260,2021-060M,2026-07-17T00:46:12.912096,13.16595553,.000167,87.9072,222.8540,94.2749,265.8573,0,U,48978,999,24353,-.25733E-4,.3E-7,0
ONEWEB-0261,2021-060N,2026-07-17T01:52:22.272384,13.16594160,.0002083,87.9078,222.8455,102.5872,257.5492,0,U,48979,999,24359,.86518E-4,.46E-6,0
ONEWEB-0262,2021-060P,2026-07-17T01:23:51.910080,13.16593996,.0002351,87.9078,222.8364,95.6373,264.5026,0,U,48980,999,24355,.2266E-3,.99E-6,0
ONEWEB-0263,2021-060Q,2026-07-17T00:20:01.468032,13.16594075,.0002201,87.9078,222.8569,101.3437,258.7941,0,U,48981,999,24351,-.52495E-4,-.7E-7,0
ONEWEB-0264,2021-060R,2026-07-17T01:13:35.249088,13.16592540,.0001961,87.9071,222.8516,98.4127,261.7226,0,U,48982,999,24352,.18322E-3,.83E-6,0
ONEWEB-0266,2021-060T,2026-07-16T14:47:45.014208,13.16596108,.0002123,87.9081,222.9293,91.3506,268.7868,0,U,48984,999,24345,-.43821E-4,-.4E-7,0
ONEWEB-0267,2021-060U,2026-07-16T15:03:43.729344,13.16594482,.0002053,87.9081,222.9238,99.0786,261.0577,0,U,48985,999,24346,-.66172E-5,.1E-6,0
ONEWEB-0268,2021-060V,2026-07-17T01:14:43.465344,13.16601870,.0001957,87.9074,222.8493,93.3638,266.7717,0,U,48986,999,24378,.21076E-2,.819E-5,0
ONEWEB-0269,2021-060W,2026-07-17T00:47:23.087040,13.16593981,.0001955,87.9072,222.8530,88.2481,271.8874,0,U,48987,999,24355,-.97806E-4,-.25E-6,0
ONEWEB-0270,2021-060X,2026-07-17T01:12:26.141184,13.16592588,.0002345,87.9080,222.8516,99.7198,260.4198,0,U,48988,999,24359,.70075E-4,.4E-6,0
ONEWEB-0271,2021-060Y,2026-07-16T13:57:36.828864,13.16593998,.0002135,87.9076,222.9338,100.0700,260.0672,0,U,48989,999,24353,-.30529E-4,.1E-7,0
ONEWEB-0272,2021-060Z,2026-07-17T01:26:08.011680,13.16595763,.0001831,87.9071,222.8496,99.3656,260.7682,0,U,48990,999,24354,.24416E-3,.106E-5,0
ONEWEB-0273,2021-060AA,2026-07-16T13:12:00.578016,13.16594083,.000217,87.9077,222.9517,96.3797,263.7581,0,U,48991,999,24345,-.29898E-3,-.101E-5,0
ONEWEB-0274,2021-060AB,2026-07-17T00:45:04.982688,13.16595279,.0001757,87.9069,222.8557,95.2937,264.8394,0,U,48992,999,24355,-.17766E-4,.6E-7,0
ONEWEB-0275,2021-060AC,2026-07-17T00:29:07.376928,13.16596004,.0001995,87.9080,222.8500,95.6003,264.5356,0,U,48993,999,24348,-.53017E-4,-.7E-7,0
ONEWEB-0276,2021-060AD,2026-07-17T01:17:01.633632,13.16593756,.0001911,87.9077,222.8425,95.2474,264.8875,0,U,48994,999,24350,.26515E-3,.114E-5,0
ONEWEB-0277,2021-060AE,2026-07-16T14:38:39.310944,13.16595173,.0002153,87.9073,222.9377,98.0198,262.1177,0,U,48995,999,24343,.13251E-3,.64E-6,0
